ONEWEB-0490             
1 54113U 22138A   26075.18319497  .00000107  00000+0  23403-3 0  9994
2 54113  87.9228 323.4973 0001795  87.1315 273.0024 13.19725289164567
ONEWEB-0500             
1 54118U 22138F   26075.18476958  .00000117  00000+0  26041-3 0  9997
2 54118  87.9220 323.4967 0001801  79.1989 280.9347 13.19724925164564
ONEWEB-0506             
1 54124U 22138M   26075.14844609 -.00000008  00000+0 -51748-4 0  9996
2 54124  87.9231 323.4983 0001775  91.7849 268.3487 13.19725465164538
ONEWEB-0511             
1 54129U 22138S   26075.13743650  .00028196  00000+0  70319-1 0  9992
2 54129  87.9232 323.5056 0001880 114.3648 245.7681 13.19591496164565
ONEWEB-0516             
1 54134U 22138X   26075.19583166  .00000105  00000+0  23075-3 0  9997
2 54134  87.9217 323.5076 0001859  82.8303 277.3041 13.19725179164567
ONEWEB-0522             
1 54140U 22138AD  26075.19108511  .00000169  00000+0  39064-3 0  9996
2 54140  87.9230 323.4818 0001702  86.3425 273.7902 13.19725135164549
ONEWEB-0529             
1 54145U 22138AJ  26075.17055934  .00000105  00000+0  22948-3 0  9992
2 54145  87.9223 323.5126 0001845  87.6812 272.4533 13.19725178164555
ONEWEB-0539             
1 54644U 22166C   26075.03289156  .00000003  00000+0 -24845-4 0  9994
2 54644  87.9167 262.5390 0001562  99.3073 260.8237 13.21826735159231
ONEWEB-0582             
1 54649U 22166H   26074.94896771  .00000037  00000+0  59204-4 0  9998
2 54649  87.9163 262.5644 0001224  96.9697 263.1576 13.21826497159208
ONEWEB-0587             
1 54654U 22166N   26075.02794630  .00000028  00000+0  36269-4 0  9991
2 54654  87.9174 262.5338 0002029  92.3652 267.7714 13.21824560159372
ONEWEB-0594             
1 54660U 22166U   26075.02136311 -.00000001  00000+0 -35158-4 0  9993
2 54660  87.9166 262.5689 0001773  93.9121 266.2216 13.21825232159257
ONEWEB-0601             
1 54665U 22166Z   26075.23035702  .00000068  00000+0  13212-3 0  9990
2 54665  87.9161 262.5305 0001351  94.1777 265.9511 13.21827488159422
ONEWEB-0607             
1 54671U 22166AF  26075.01973037  .00000029  00000+0  39638-4 0  9993
2 54671  87.9170 262.5401 0001513  96.0485 264.0821 13.21827180159235
