
    {
      "objectName": "ONEWEB-0490",
      "objectId": "2022-138A",
      "noradId": 54113,
      "epochUtc": "2026-03-16T04:23:48.045408Z",
      "meanMotionRevPerDay": 13.19725289,
      "eccentricity": 0.00017957,
      "inclinationDeg": 87.9228,
      "raanDeg": 323.4973,
      "argPerigeeDeg": 87.1315,
      "meanAnomalyDeg": 273.0024,
      "bstar": 0.0002340322,
      "meanMotionDot": 0.00000107,
      "meanMotionDdot": 0,
      "elementSetNo": 999,
      "revAtEpoch": 16456
    },
    {
      "objectName": "ONEWEB-0500",
      "objectId": "2022-138F",
      "noradId": 54118,
      "epochUtc": "2026-03-16T04:26:04.091712Z",
      "meanMotionRevPerDay": 13.19724925,
      "eccentricity": 0.00018014,
      "inclinationDeg": 87.922,
      "raanDeg": 323.4967,
      "argPerigeeDeg": 79.1989,
      "meanAnomalyDeg": 280.9347,
      "bstar": 0.00026040666,
      "meanMotionDot": 0.00000117,
      "meanMotionDdot": 0,
      "elementSetNo": 999,
      "revAtEpoch": 16456
    },
    {
      "objectName": "ONEWEB-0506",
      "objectId": "2022-138M",
      "noradId": 54124,
      "epochUtc": "2026-03-16T03:33:45.742176Z",
      "meanMotionRevPerDay": 13.19725465,
      "eccentricity": 0.00017758,
      "inclinationDeg": 87.9231,
      "raanDeg": 323.4983,
      "argPerigeeDeg": 91.7849,
      "meanAnomalyDeg": 268.3487,
      "bstar": -0.000051747981,
      "meanMotionDot": -8e-8,
      "meanMotionDdot": 0,
      "elementSetNo": 999,
      "revAtEpoch": 16453
    },
    {
      "objectName": "ONEWEB-0511",
      "objectId": "2022-138S",
      "noradId": 54129,
      "epochUtc": "2026-03-16T03:17:54.513600Z",
      "meanMotionRevPerDay": 13.19591496,
      "eccentricity": 0.00018805,
      "inclinationDeg": 87.9232,
      "raanDeg": 323.5056,
      "argPerigeeDeg": 114.3648,
      "meanAnomalyDeg": 245.7681,
      "bstar": 0.070319116,
      "meanMotionDot": 0.00028196,
      "meanMotionDdot": 0,
      "elementSetNo": 999,
      "revAtEpoch": 16456
    },
    {
      "objectName": "ONEWEB-0516",
      "objectId": "2022-138X",
      "noradId": 54134,
      "epochUtc": "2026-03-16T04:41:59.855424Z",
      "meanMotionRevPerDay": 13.19725179,
      "eccentricity": 0.00018592,
      "inclinationDeg": 87.9217,
      "raanDeg": 323.5076,
      "argPerigeeDeg": 82.8303,
      "meanAnomalyDeg": 277.3041,
      "bstar": 0.00023075051,
      "meanMotionDot": 0.00000105,
      "meanMotionDdot": 0,
      "elementSetNo": 999,
      "revAtEpoch": 16456
    },
    {
      "objectName": "ONEWEB-0522",
      "objectId": "2022-138AD",
      "noradId": 54140,
      "epochUtc": "2026-03-16T04:35:09.753504Z",
      "meanMotionRevPerDay": 13.19725135,
      "eccentricity": 0.00017029,
      "inclinationDeg": 87.923,
      "raanDeg": 323.4818,
      "argPerigeeDeg": 86.3425,
      "meanAnomalyDeg": 273.7902,
      "bstar": 0.00039064292,
      "meanMotionDot": 0.00000169,
      "meanMotionDdot": 0,
      "elementSetNo": 999,
      "revAtEpoch": 16454
    },
    {
      "objectName": "ONEWEB-0529",
      "objectId": "2022-138AJ",
      "noradId": 54145,
      "epochUtc": "2026-03-16T04:05:36.326976Z",
      "meanMotionRevPerDay": 13.19725178,
      "eccentricity": 0.00018458,
      "inclinationDeg": 87.9223,
      "raanDeg": 323.5126,
      "argPerigeeDeg": 87.6812,
      "meanAnomalyDeg": 272.4533,
      "bstar": 0.00022947875,
      "meanMotionDot": 0.00000105,
      "meanMotionDdot": 0,
      "elementSetNo": 999,
      "revAtEpoch": 16455
    },
    {
      "objectName": "ONEWEB-0539",
      "objectId": "2022-166C",
      "noradId": 54644,
      "epochUtc": "2026-03-16T00:47:21.830784Z",
      "meanMotionRevPerDay": 13.21826735,
      "eccentricity": 0.00015628,
      "inclinationDeg": 87.9167,
      "raanDeg": 262.539,
      "argPerigeeDeg": 99.3073,
      "meanAnomalyDeg": 260.8237,
      "bstar": -0.000024845367,
      "meanMotionDot": 3e-8,
      "meanMotionDdot": 0,
      "elementSetNo": 999,
      "revAtEpoch": 15923
    },
    {
      "objectName": "ONEWEB-0582",
      "objectId": "2022-166H",
      "noradId": 54649,
      "epochUtc": "2026-03-15T22:46:30.810144Z",
      "meanMotionRevPerDay": 13.21826497,
      "eccentricity": 0.00012245,
      "inclinationDeg": 87.9163,
      "raanDeg": 262.5644,
      "argPerigeeDeg": 96.9697,
      "meanAnomalyDeg": 263.1576,
      "bstar": 0.000059204397,
      "meanMotionDot": 3.7e-7,
      "meanMotionDdot": 0,
      "elementSetNo": 999,
      "revAtEpoch": 15920
    },
    {
      "objectName": "ONEWEB-0587",
      "objectId": "2022-166N",
      "noradId": 54654,
      "epochUtc": "2026-03-16T00:40:14.560320Z",
      "meanMotionRevPerDay": 13.2182456,
      "eccentricity": 0.00020295,
      "inclinationDeg": 87.9174,
      "raanDeg": 262.5338,
      "argPerigeeDeg": 92.3652,
      "meanAnomalyDeg": 267.7714,
      "bstar": 0.00003626851,
      "meanMotionDot": 2.8e-7,
      "meanMotionDdot": 0,
      "elementSetNo": 999,
      "revAtEpoch": 15937
    },
    {
      "objectName": "ONEWEB-0594",
      "objectId": "2022-166U",
      "noradId": 54660,
      "epochUtc": "2026-03-16T00:30:45.772704Z",
      "meanMotionRevPerDay": 13.21825232,
      "eccentricity": 0.00017737,
      "inclinationDeg": 87.9166,
      "raanDeg": 262.5689,
      "argPerigeeDeg": 93.9121,
      "meanAnomalyDeg": 266.2216,
      "bstar": -0.000035157824,
      "meanMotionDot": -1e-8,
      "meanMotionDdot": 0,
      "elementSetNo": 999,
      "revAtEpoch": 15925
    },
    {
      "objectName": "ONEWEB-0601",
      "objectId": "2022-166Z",
      "noradId": 54665,
      "epochUtc": "2026-03-16T05:31:42.846528Z",
      "meanMotionRevPerDay": 13.21827488,
      "eccentricity": 0.00013515,
      "inclinationDeg": 87.9161,
      "raanDeg": 262.5305,
      "argPerigeeDeg": 94.1777,
      "meanAnomalyDeg": 265.9511,
      "bstar": 0.00013212051,
      "meanMotionDot": 6.8e-7,
      "meanMotionDdot": 0,
      "elementSetNo": 999,
      "revAtEpoch": 15942
    },
    {
      "objectName": "ONEWEB-0607",
      "objectId": "2022-166AF",
      "noradId": 54671,
      "epochUtc": "2026-03-16T00:28:24.703968Z",
      "meanMotionRevPerDay": 13.2182718,
      "eccentricity": 0.00015133,
      "inclinationDeg": 87.917,
      "raanDeg": 262.5401,
      "argPerigeeDeg": 96.0485,
      "meanAnomalyDeg": 264.0821,
      "bstar": 0.00003963762,
      "meanMotionDot": 2.9e-7,
      "meanMotionDdot": 0,
      "elementSetNo": 999,
      "revAtEpoch": 15923
    }